ONEWEB-0589             
1 54655U 22166P   24202.56256675  .00000030  00000+0  41211-4 0  9999
2 54655  87.9280  22.6631 0002721  99.2669 260.8773 13.21824567 79518
ONEWEB-0590             
1 54656U 22166Q   24202.58622471  .00000147  00000+0  32470-3 0  9998
2 54656  87.9285  22.6666 0001732  93.2484 266.8848 13.21825675 79501
ONEWEB-0591             
1 54657U 22166R   24202.52313013  .00000081  00000+0  16563-3 0  9994
2 54657  87.9280  22.6736 0001951  92.3560 267.7798 13.21824357 79525
ONEWEB-0592             
1 54658U 22166S   24202.52629554  .00000099  00000+0  20891-3 0  9993
2 54658  87.9276  22.6374 0002023  96.0056 264.1309 13.21826317 79405
ONEWEB-0593             
1 54659U 22166T   24202.54994749  .00000045  00000+0  77422-4 0  9991
2 54659  87.9280  22.6592 0002043  93.8582 266.2786 13.21826712 79517
ONEWEB-0594             
1 54660U 22166U   24202.56887263  .00000032  00000+0  46010-4 0  9992
2 54660  87.9284  22.6566 0001841  85.1252 275.0092 13.21826353 79538
ONEWEB-0595             
1 54661U 22166V   24202.54678209  .00000039  00000+0  64009-4 0  9994
2 54661  87.9283  22.6475 0001592  89.8578 270.2738 13.21823910 79509
ONEWEB-0596             
1 54662U 22166W   24202.51999009  .00000079  00000+0  15961-3 0  9992
2 54662  87.9282  22.6588 0002022  98.5923 261.5440 13.21826342 79509
ONEWEB-0597             
1 54663U 22166X   24202.57675706  .00000073  00000+0  14552-3 0  9993
2 54663  87.9283  22.6495 0002173  91.0083 269.1300 13.21827008 79510
ONEWEB-0600             
1 54664U 22166Y   24202.55941053  .00000014  00000+0  19778-5 0  9995
2 54664  87.9278  22.6913 0002024  89.3555 270.7811 13.21826449 79488
ONEWEB-0601             
1 54665U 22166Z   24202.55152465  .00000039  00000+0  62420-4 0  9995
2 54665  87.9285  22.6596 0002259  98.9889 261.1501 13.21825530 79671
ONEWEB-0602             
1 54666U 22166AA  24202.51682586  .00000067  00000+0  12993-3 0  9994
2 54666  87.9283  22.6701 0002174  93.0371 267.1012 13.21824689 79516
ONEWEB-0603             
1 54667U 22166AB  24202.52155698  .00000065  00000+0  12531-3 0  9991
2 54667  87.9285  22.6712 0002228  93.8679 266.2709 13.21824173 79443
ONEWEB-0604             
1 54668U 22166AC  24202.58464374  .00000097  00000+0  20278-3 0  9994
2 54668  87.9279  22.6360 0001969  82.0724 278.0634 13.21827263 79416
ONEWEB-0605             
1 54669U 22166AD  24202.57833084  .00000117  00000+0  25098-3 0  9990
2 54669  87.9278  22.6698 0002328 102.6546 257.4849 13.21825184 79487
ONEWEB-0606             
1 54670U 22166AE  24202.52471012  .00000089  00000+0  18521-3 0  9997
2 54670  87.9283  22.6724 0001666  87.9984 272.1340 13.21824758 79532
ONEWEB-0607             
1 54671U 22166AF  24202.56728576  .00000037  00000+0  58676-4 0  9991
2 54671  87.9280  22.6407 0002106  91.0450 269.0925 13.21824276 79519
ONEWEB-0608             
1 54672U 22166AG  24202.57359864  .00000062  00000+0  11896-3 0  9993
2 54672  87.9287  22.6628 0002313  99.3740 260.7655 13.21825130 79524
ONEWEB-0610             
1 54673U 22166AH  24202.55468096  .00000053  00000+0  97630-4 0  9991
2 54673  87.9281  22.6599 0002215  98.3365 261.8021 13.21825651 79425
ONEWEB-0611             
1 54674U 22166AJ  24202.54836742  .00000057  00000+0  10728-3 0  9994
2 54674  87.9281  22.6598 0001606  78.9403 281.1912 13.21825030 79419
ONEWEB-0612             
1 54675U 22166AK  24202.56098582  .00000012  00000+0 -17086-5 0  9997
2 54675  87.9280  22.6397 0002053  95.3405 264.7963 13.21825141 79403
ONEWEB-0615             
1 54676U 22166AL  24202.54206598  .00000056  00000+0  10514-3 0  9998
2 54676  87.9280  22.6682 0002097  86.8035 273.3339 13.21826598 79414
ONEWEB-0655             
1 54677U 22166AM  24202.51524909  .00000070  00000+0  13745-3 0  9990
2 54677  87.9278  22.6759 0002311  82.4896 277.6500 13.21827682 79404
ONEWEB-0659             
1 54678U 22166AN  24202.53260131  .00000085  00000+0  17373-3 0  9994
2 54678  87.9279  22.6785 0001633  89.3341 270.7980 13.21826698 79493
ONEWEB-0685             
1 54679U 22166AP  24202.53417695  .00000071  00000+0  14059-3 0  9997
2 54679  87.9282  22.6682 0002117  89.4961 270.6415 13.21826603 79387
ONEWEB-0712             
1 54680U 22166AQ  24202.49884396 -.00000007  00000+0 -51264-4 0  9991
2 54680  87.9110   7.4825 0001604  79.3485 280.7827 13.17105015 80381
ONEWEB-0714             
1 54681U 22166AR  24202.54047671  .00000105  00000+0  22296-3 0  9994
2 54681  87.9282  22.6534 0002142  89.3264 270.8115 13.21824243 79500
ONEWEB-0532             
1 55140U 23004A   24202.54643043  .00000057  00000+0  11400-3 0  9993
2 55140  87.9189 144.5718 0002054  95.3619 264.7747 13.17647954 75841
ONEWEB-0533             
1 55141U 23004B   24202.49725833  .00000146  00000+0  36947-3 0  9998
2 55141  87.8961 129.3821 0002141  77.3427 282.7941 13.12441710 76674
ONEWEB-0541             
1 55142U 23004C   24202.36388670 -.00000383  00000+0 -11170-2 0  9994
2 55142  87.8984 159.7504 0002083  83.1548 276.9817 13.11414155 74610
ONEWEB-0543             
1 55143U 23004D   24202.46621872  .00000116  00000+0  26151-3 0  9998
2 55143  87.9142 114.2510 0002114  67.9691 292.1666 13.18685167 77878
ONEWEB-0544             
1 55144U 23004E   24202.45988523  .00000085  00000+0  18163-3 0  9996
2 55144  87.9144 114.2376 0001831  77.8047 282.3290 13.18684430 77877
ONEWEB-0560             
1 55145U 23004F   24202.45357288  .00000068  00000+0  13988-3 0  9996
2 55145  87.9150 114.1918 0001782  64.9390 295.1927 13.18687192 77887
ONEWEB-0565             
1 55146U 23004G   24202.44723820  .00000019  00000+0  14950-4 0  9992
2 55146  87.9145 114.2697 0001276  82.3201 277.8076 13.18684342 77875
ONEWEB-0567             
1 55147U 23004H   24202.51679923  .00000064  00000+0  12862-3 0  9994
2 55147  87.9146 114.2095 0001465  70.1820 289.9470 13.18685474 77881
ONEWEB-0569             
1 55148U 23004J   24202.43924126 -.00000198  00000+0 -57609-3 0  9992
2 55148  87.8920  98.8810 0001149  43.5590 316.5629 13.13470389 78718
ONEWEB-0570             
1 55149U 23004K   24202.50414882  .00000057  00000+0  11207-3 0  9990
2 55149  87.9148 114.2095 0001838 101.1374 258.9965 13.18685005 77872
ONEWEB-0571             
1 55150U 23004L   24202.49782814  .00000025  00000+0  31069-4 0  9997
2 55150  87.9149 114.2168 0000848  83.7868 276.3361 13.18686969 77884
ONEWEB-0572             
1 55151U 23004M   24202.34933473  .00000075  00000+0  15965-3 0  9992
2 55151  87.9188 144.6182 0001917  84.7110 275.4240 13.17650158 75716
ONEWEB-0573             
1 55152U 23004N   24202.26387004  .00000094  00000+0  20603-3 0  9993
2 55152  87.9144 114.2828 0001068  98.6790 261.4463 13.18684592 77842
ONEWEB-0588             
1 55153U 23004P   24202.48518020  .00000057  00000+0  11227-3 0  9993
2 55153  87.9149 114.2070 0001720  94.2790 265.8539 13.18684387 77871
ONEWEB-0598             
1 55154U 23004Q   24202.41814538  .00000479  00000+0  13149-2 0  9992
2 55154  87.8983 159.7792 0001330  76.4938 283.6338 13.11418334 74574
ONEWEB-0599             
1 55155U 23004R   24202.53836301  .00000040  00000+0  68951-4 0  9995
2 55155  87.9196 144.5666 0001976  75.6052 284.5299 13.17649813 75748
ONEWEB-0614             
1 55156U 23004S   24202.41307410  .00000532  00000+0  14640-2 0  9997
2 55156  87.8984 159.7844 0002394  89.9423 270.1979 13.11416838 74517
ONEWEB-0616             
1 55157U 23004T   24202.58035660  .00000034  00000+0  54261-4 0  9993
2 55157  87.9189 144.5647 0002580  52.4041 307.7325 13.17647156 75964
ONEWEB-0617             
1 55158U 23004U   24202.40119984  .00000449  00000+0  12313-2 0  9997
2 55158  87.8981 159.7805 0002097  94.7454 265.3914 13.11418897 74535
ONEWEB-0618             
1 55159U 23004V   24202.42101651  .00000350  00000+0  13634-3 0  9991
2 55159  86.9043  81.5483 0013448 167.5427 192.6101 14.26849375 80083
ONEWEB-0619             
1 55160U 23004W   24202.53674141  .00000048  00000+0  90796-4 0  9993
2 55160  87.9193 144.5503 0002569  73.1309 287.0104 13.17648061 75857
ONEWEB-0620             
1 55161U 23004X   24202.39609763  .00000209  00000+0  55254-3 0  9994
2 55161  87.8986 159.7927 0001849  95.5904 264.5435 13.11421347 74502
ONEWEB-0621             
1 55162U 23004Y   24202.42323975  .00000344  00000+0  93344-3 0  9999
2 55162  87.8978 159.7555 0002369  82.7008 277.4389 13.11415082 74489
ONEWEB-0622             
1 55163U 23004Z   24202.58091729  .00000204  00000+0  54084-3 0  9999
2 55163  87.8980 159.7408 0002299 105.5188 254.6193 13.11414471 74497
ONEWEB-0623             
1 55164U 23004AA  24202.60782469  .00000037  00000+0  61167-4 0  9996
2 55164  87.9192 144.5900 0002530  98.4707 261.6712 13.17647412 75853
ONEWEB-0624             
1 55165U 23004AB  24202.53956900  .00000037  00000+0  68640-4 0  9995
2 55165  87.8962 129.3818 0002135  82.6079 277.5292 13.12444979 76673
ONEWEB-0625             
1 55166U 23004AC  24202.59653808 -.00000020  00000+0 -84636-4 0  9990
2 55166  87.9191 144.5906 0002286  74.3199 285.8185 13.17650444 75846
ONEWEB-0626             
1 55167U 23004AD  24202.58683865  .00000023  00000+0  26208-4 0  9998
2 55167  87.9190 144.5929 0001564  86.1721 273.9589 13.17650170 75843
ONEWEB-0627             
1 55168U 23004AE  24202.57553216  .00000019  00000+0  16164-4 0  9999
2 55168  87.9190 144.5965 0002251  98.3071 261.8316 13.17648896 75847
ONEWEB-0628             
1 55169U 23004AF  24202.52009536 -.00000354  00000+0 -10203-2 0  9996
2 55169  87.8959 129.3727 0002658  93.0764 267.0669 13.12444830 76655
ONEWEB-0629             
1 55170U 23004AG  24202.57145998  .00000018  00000+0  12319-4 0  9993
2 55170  87.9185 144.5866 0002551  81.7308 278.4113 13.17646639 75848
ONEWEB-0631             
1 55171U 23004AH  24202.47886506  .00000094  00000+0  20464-3 0  9993
2 55171  87.9155 114.1159 0001499  94.7151 265.4152 13.18685019 77852
